COSMOS 2425 (716)       
1 29670U 06062A   21045.55153021  .00000031  00000-0  00000-0 0  9996
2 29670  64.8780 259.6020 0024705 349.5188 189.7977  2.13113717110050
COSMOS 2433 (720)       
1 32275U 07052A   21045.37854036 -.00000065  00000-0  00000-0 0  9993
2 32275  66.0422  20.8730 0005082 266.9900 318.6820  2.13104199103561
COSMOS 2432 (719)       
1 32276U 07052B   21045.28253264 -.00000065  00000-0  00000-0 0  9990
2 32276  66.0540  20.9689 0012168 320.6117 140.9730  2.13103530103562
COSMOS 2434 (721)       
1 32393U 07065A   21044.69261119  .00000034  00000-0  00000+0 0  9990
2 32393  64.4910 258.1472 0004691  75.7970 231.6961  2.13103053102256
COSMOS 2436 (723)       
1 32395U 07065C   21045.31884036  .00000032  00000-0  00000-0 0  9990
2 32395  64.5036 258.1784 0016179   6.5756 197.4867  2.13102910102202
COSMOS 2456 (730)       
1 36111U 09070A   21044.98532197  .00000006  00000-0  00000-0 0  9999
2 36111  64.2572 137.8162 0003237 317.8828  26.3540  2.13099097 86925
COSMOS 2457 (733)       
1 36112U 09070B   21045.37175221  .00000006  00000-0  00000-0 0  9995
2 36112  64.2392 137.6909 0005594 163.8728 240.2138  2.13101338 86943
COSMOS 2459 (731)       
1 36400U 10007A   21045.31730852 -.00000066  00000-0  00000-0 0  9995
2 36400  65.9407  19.8153 0026537 344.6430  50.2463  2.13105028 85285
COSMOS 2461 (735)       
1 36401U 10007B   21045.30485830 -.00000066  00000-0  00000-0 0  9998
2 36401  65.9364  19.7789 0020658 359.7868  27.4274  2.13103722 85298
COSMOS 2460 (732)       
1 36402U 10007C   21045.35352319 -.00000066  00000-0  00000-0 0  9999
2 36402  65.9236  19.7382 0002526 292.7424  75.3893  2.13106529 85291
COSMOS 2464 (736)       
1 37139U 10041C   21045.22022324  .00000032  00000-0  00000-0 0  9993
2 37139  64.0933 257.4475 0029071  13.3945 200.6999  2.13100751 81349
COSMOS 2471 (701K)      
1 37372U 11009A   21045.44528240 -.00000066  00000-0  00000-0 0  9997
2 37372  65.9198  19.6728 0009992 237.1713   4.9646  2.13107353 77567
COSMOS 2476 (744)       
1 37867U 11064A   21045.11662986  .00000007  00000-0  00000-0 0  9991
2 37867  64.5534 138.9764 0020145 235.5734 110.6814  2.13101861 72271
COSMOS 2477 (745)       
1 37868U 11064B   21045.36838233  .00000007  00000-0  00000-0 0  9999
2 37868  64.5618 139.0271 0017540 236.3827 121.3945  2.13101637 72238
COSMOS 2475 (743)       
1 37869U 11064C   21045.42887644  .00000007  00000-0  00000-0 0  9997
2 37869  64.5694 139.0291 0021377 257.5046 104.2762  2.13101773 72256
COSMOS 2485 (747)       
1 39155U 13019A   21045.05511365  .00000007  00000-0  00000-0 0  9992
2 39155  64.7206 139.3004 0020648 231.2426 112.3255  2.13101784 60743
COSMOS 2492 (754)       
1 39620U 14012A   21045.31664193 -.00000067  00000-0  00000-0 0  9997
2 39620  65.8119  19.4884 0015419 319.0148 260.1027  2.13103184 53708
COSMOS 2500 (755)       
1 40001U 14032A   21045.44256734 -.00000066  00000-0  00000-0 0  9995
2 40001  65.7517  19.3811 0007003 226.1343 309.5123  2.13102491 51925
COSMOS 2501 (702K)      
1 40315U 14075A   21045.37914869  .00000031  00000-0  00000-0 0  9993
2 40315  63.8067 258.2970 0015346 207.6373  85.2488  2.13100894 48325
COSMOS 2514 (751)       
1 41330U 16008A   21045.31410409 -.00000067  00000-0  00000-0 0  9994
2 41330  65.5544  19.1988 0010861 227.4457  32.5596  2.13102894 39085
COSMOS 2516 (753)       
1 41554U 16032A   21045.35053855  .00000031  00000-0  00000-0 0  9991
2 41554  64.0312 258.4360 0011252 215.6152 324.9429  2.13106735 36693
COSMOS 2522 (752)       
1 42939U 17055A   21045.48102424  .00000031  00000-0  00000-0 0  9996
2 42939  64.2661 258.6851 0005266 253.4987 252.5115  2.13102033 26459
COSMOS 2527 (756)       
1 43508U 18053A   21045.29731528  .00000007  00000-0  00000-0 0  9993
2 43508  64.8852 139.1910 0007566 226.2355 170.8428  2.13102548 20747
COSMOS 2529 (757)       
1 43687U 18086A   21044.79422280  .00000033  00000-0  00000-0 0  9992
2 43687  64.4788 258.8919 0008136 281.6187  13.0563  2.13102105 17742
COSMOS 2534 (758)       
1 44299U 19030A   21045.64372480  .00000031  00000-0  00000-0 0  9991
2 44299  64.5462 258.7021 0011738 299.7586  61.5192  2.13101949 13411
COSMOS 2544 (759)       
1 44850U 19088A   21045.63446737  .00000008  00000-0  00000-0 0  9997
2 44850  64.8694 139.0422 0011185 260.9386  78.6547  2.13102302  9180
COSMOS 2545 (760)       
1 45358U 20018A   21045.24752760 -.00000068  00000-0  00000-0 0  9996
2 45358  64.8846  20.2118 0011173 258.6286 354.2933  2.13102728  7122
